CCSDS_OMM_VERS = 2.0
CREATION_DATE  = 
ORIGINATOR     = 

OBJECT_NAME    = STARLINK-36796
OBJECT_ID      = 2026-026B
CENTER_NAME    = EARTH
REF_FRAME      = TEME
TIME_SYSTEM    = UTC
MEAN_ELEMENT_THEORY = SGP/SGP4

EPOCH          = 2026-02-25T20:00:03.000384
MEAN_MOTION    = 15.80855281
ECCENTRICITY   = .0001378
INCLINATION    = 97.2839
RA_OF_ASC_NODE = 110.8754
ARG_OF_PERICENTER = 71.4734
MEAN_ANOMALY   = 201.9177

EPHEMERIS_TYPE = 0
CLASSIFICATION_TYPE = U
NORAD_CAT_ID   = 67722
ELEMENT_SET_NO = 999
REV_AT_EPOCH   = 340
BSTAR          = -.1546E-3
MEAN_MOTION_DOT = -.29708E-3
MEAN_MOTION_DDOT = 0

CCSDS_OMM_VERS = 2.0
CREATION_DATE  = 
ORIGINATOR     = 

OBJECT_NAME    = STARLINK-36369
OBJECT_ID      = 2026-026C
CENTER_NAME    = EARTH
REF_FRAME      = TEME
TIME_SYSTEM    = UTC
MEAN_ELEMENT_THEORY = SGP/SGP4

EPOCH          = 2026-02-25T20:00:03.000384
MEAN_MOTION    = 15.80786779
ECCENTRICITY   = .0001593
INCLINATION    = 97.2837
RA_OF_ASC_NODE = 110.8783
ARG_OF_PERICENTER = 85.4050
MEAN_ANOMALY   = 193.8268

EPHEMERIS_TYPE = 0
CLASSIFICATION_TYPE = U
NORAD_CAT_ID   = 67723
ELEMENT_SET_NO = 999
REV_AT_EPOCH   = 340
BSTAR          = .70693E-3
MEAN_MOTION_DOT = .137236E-2
MEAN_MOTION_DDOT = 0

CCSDS_OMM_VERS = 2.0
CREATION_DATE  = 
ORIGINATOR     = 

OBJECT_NAME    = STARLINK-36752
OBJECT_ID      = 2026-026D
CENTER_NAME    = EARTH
REF_FRAME      = TEME
TIME_SYSTEM    = UTC
MEAN_ELEMENT_THEORY = SGP/SGP4

EPOCH          = 2026-02-25T20:00:03.000384
MEAN_MOTION    = 15.80756046
ECCENTRICITY   = .0001451
INCLINATION    = 97.2816
RA_OF_ASC_NODE = 110.8823
ARG_OF_PERICENTER = 82.6094
MEAN_ANOMALY   = 204.2652

EPHEMERIS_TYPE = 0
CLASSIFICATION_TYPE = U
NORAD_CAT_ID   = 67724
ELEMENT_SET_NO = 999
REV_AT_EPOCH   = 340
BSTAR          = .11658E-2
MEAN_MOTION_DOT = .228485E-2
MEAN_MOTION_DDOT = 0

CCSDS_OMM_VERS = 2.0
CREATION_DATE  = 
ORIGINATOR     = 

OBJECT_NAME    = STARLINK-36754
OBJECT_ID      = 2026-026E
CENTER_NAME    = EARTH
REF_FRAME      = TEME
TIME_SYSTEM    = UTC
MEAN_ELEMENT_THEORY = SGP/SGP4

EPOCH          = 2026-02-25T20:00:03.000384
MEAN_MOTION    = 15.80857370
ECCENTRICITY   = .000146
INCLINATION    = 97.2820
RA_OF_ASC_NODE = 110.8839
ARG_OF_PERICENTER = 108.1936
MEAN_ANOMALY   = 184.6930

EPHEMERIS_TYPE = 0
CLASSIFICATION_TYPE = U
NORAD_CAT_ID   = 67725
ELEMENT_SET_NO = 999
REV_AT_EPOCH   = 340
BSTAR          = -.11852E-3
MEAN_MOTION_DOT = -.22827E-3
MEAN_MOTION_DDOT = 0

CCSDS_OMM_VERS = 2.0
CREATION_DATE  = 
ORIGINATOR     = 

OBJECT_NAME    = STARLINK-36755
OBJECT_ID      = 2026-026F
CENTER_NAME    = EARTH
REF_FRAME      = TEME
TIME_SYSTEM    = UTC
MEAN_ELEMENT_THEORY = SGP/SGP4

EPOCH          = 2026-02-25T20:00:03.000384
MEAN_MOTION    = 15.80807379
ECCENTRICITY   = .0001284
INCLINATION    = 97.2812
RA_OF_ASC_NODE = 110.8861
ARG_OF_PERICENTER = 85.1329
MEAN_ANOMALY   = 215.4188

EPHEMERIS_TYPE = 0
CLASSIFICATION_TYPE = U
NORAD_CAT_ID   = 67726
ELEMENT_SET_NO = 999
REV_AT_EPOCH   = 340
BSTAR          = .52482E-3
MEAN_MOTION_DOT = .101522E-2
MEAN_MOTION_DDOT = 0

CCSDS_OMM_VERS = 2.0
CREATION_DATE  = 
ORIGINATOR     = 

OBJECT_NAME    = STARLINK-36741
OBJECT_ID      = 2026-026G
CENTER_NAME    = EARTH
REF_FRAME      = TEME
TIME_SYSTEM    = UTC
MEAN_ELEMENT_THEORY = SGP/SGP4

EPOCH          = 2026-02-25T20:00:03.000384
MEAN_MOTION    = 15.80827700
ECCENTRICITY   = .0001554
INCLINATION    = 97.2805
RA_OF_ASC_NODE = 110.8875
ARG_OF_PERICENTER = 93.5274
MEAN_ANOMALY   = 211.9674

EPHEMERIS_TYPE = 0
CLASSIFICATION_TYPE = U
NORAD_CAT_ID   = 67727
ELEMENT_SET_NO = 999
REV_AT_EPOCH   = 340
BSTAR          = .1837E-3
MEAN_MOTION_DOT = .35208E-3
MEAN_MOTION_DDOT = 0

CCSDS_OMM_VERS = 2.0
CREATION_DATE  = 
ORIGINATOR     = 

OBJECT_NAME    = STARLINK-36757
OBJECT_ID      = 2026-026H
CENTER_NAME    = EARTH
REF_FRAME      = TEME
TIME_SYSTEM    = UTC
MEAN_ELEMENT_THEORY = SGP/SGP4

EPOCH          = 2026-02-25T20:00:03.000384
MEAN_MOTION    = 15.80813406
ECCENTRICITY   = .0001071
INCLINATION    = 97.2804
RA_OF_ASC_NODE = 110.8896
ARG_OF_PERICENTER = 90.8477
MEAN_ANOMALY   = 221.5524

EPHEMERIS_TYPE = 0
CLASSIFICATION_TYPE = U
NORAD_CAT_ID   = 67728
ELEMENT_SET_NO = 999
REV_AT_EPOCH   = 340
BSTAR          = .43188E-3
MEAN_MOTION_DOT = .83368E-3
MEAN_MOTION_DDOT = 0

CCSDS_OMM_VERS = 2.0
CREATION_DATE  = 
ORIGINATOR     = 

OBJECT_NAME    = STARLINK-36751
OBJECT_ID      = 2026-026J
CENTER_NAME    = EARTH
REF_FRAME      = TEME
TIME_SYSTEM    = UTC
MEAN_ELEMENT_THEORY = SGP/SGP4

EPOCH          = 2026-02-25T20:00:03.000384
MEAN_MOTION    = 15.80794917
ECCENTRICITY   = .000105
INCLINATION    = 97.2799
RA_OF_ASC_NODE = 110.8953
ARG_OF_PERICENTER = 77.8470
MEAN_ANOMALY   = 248.6515

EPHEMERIS_TYPE = 0
CLASSIFICATION_TYPE = U
NORAD_CAT_ID   = 67729
ELEMENT_SET_NO = 999
REV_AT_EPOCH   = 340
BSTAR          = .6453E-3
MEAN_MOTION_DOT = .125129E-2
MEAN_MOTION_DDOT = 0

CCSDS_OMM_VERS = 2.0
CREATION_DATE  = 
ORIGINATOR     = 

OBJECT_NAME    = STARLINK-36747
OBJECT_ID      = 2026-026K
CENTER_NAME    = EARTH
REF_FRAME      = TEME
TIME_SYSTEM    = UTC
MEAN_ELEMENT_THEORY = SGP/SGP4

EPOCH          = 2026-02-25T20:00:03.000384
MEAN_MOTION    = 15.80870452
ECCENTRICITY   = .0001437
INCLINATION    = 97.2809
RA_OF_ASC_NODE = 110.8928
ARG_OF_PERICENTER = 96.1669
MEAN_ANOMALY   = 221.7743

EPHEMERIS_TYPE = 0
CLASSIFICATION_TYPE = U
NORAD_CAT_ID   = 67730
ELEMENT_SET_NO = 999
REV_AT_EPOCH   = 340
BSTAR          = -.45134E-3
MEAN_MOTION_DOT = -.85964E-3
MEAN_MOTION_DDOT = 0

CCSDS_OMM_VERS = 2.0
CREATION_DATE  = 
ORIGINATOR     = 

OBJECT_NAME    = STARLINK-36315
OBJECT_ID      = 2026-026L
CENTER_NAME    = EARTH
REF_FRAME      = TEME
TIME_SYSTEM    = UTC
MEAN_ELEMENT_THEORY = SGP/SGP4

EPOCH          = 2026-02-25T20:00:03.000384
MEAN_MOTION    = 15.80847788
ECCENTRICITY   = .000175
INCLINATION    = 97.2808
RA_OF_ASC_NODE = 110.8985
ARG_OF_PERICENTER = 100.9542
MEAN_ANOMALY   = 231.0138

EPHEMERIS_TYPE = 0
CLASSIFICATION_TYPE = U
NORAD_CAT_ID   = 67731
ELEMENT_SET_NO = 999
REV_AT_EPOCH   = 340
BSTAR          = -.11635E-3
MEAN_MOTION_DOT = -.22405E-3
MEAN_MOTION_DDOT = 0

CCSDS_OMM_VERS = 2.0
CREATION_DATE  = 
ORIGINATOR     = 

OBJECT_NAME    = STARLINK-36260
OBJECT_ID      = 2026-026M
CENTER_NAME    = EARTH
REF_FRAME      = TEME
TIME_SYSTEM    = UTC
MEAN_ELEMENT_THEORY = SGP/SGP4

EPOCH          = 2026-02-25T20:00:03.000384
MEAN_MOTION    = 15.80851934
ECCENTRICITY   = .0001485
INCLINATION    = 97.2810
RA_OF_ASC_NODE = 110.9009
ARG_OF_PERICENTER = 80.5275
MEAN_ANOMALY   = 258.1764

EPHEMERIS_TYPE = 0
CLASSIFICATION_TYPE = U
NORAD_CAT_ID   = 67732
ELEMENT_SET_NO = 999
REV_AT_EPOCH   = 340
BSTAR          = -.37728E-4
MEAN_MOTION_DOT = -.7374E-4
MEAN_MOTION_DDOT = 0

CCSDS_OMM_VERS = 2.0
CREATION_DATE  = 
ORIGINATOR     = 

OBJECT_NAME    = STARLINK-36746
OBJECT_ID      = 2026-026N
CENTER_NAME    = EARTH
REF_FRAME      = TEME
TIME_SYSTEM    = UTC
MEAN_ELEMENT_THEORY = SGP/SGP4

EPOCH          = 2026-02-25T20:00:03.000384
MEAN_MOTION    = 15.78590707
ECCENTRICITY   = .0001393
INCLINATION    = 97.2742
RA_OF_ASC_NODE = 110.9006
ARG_OF_PERICENTER = 82.0923
MEAN_ANOMALY   = 259.0273

EPHEMERIS_TYPE = 0
CLASSIFICATION_TYPE = U
NORAD_CAT_ID   = 67733
ELEMENT_SET_NO = 999
REV_AT_EPOCH   = 340
BSTAR          = -.13144E-1
MEAN_MOTION_DOT = -.1975539E-1
MEAN_MOTION_DDOT = 0

