STARLINK-36796          
1 67722U 26026B   26056.83336806 -.00029708  00000+0 -15460-3 0  9992
2 67722  97.2839 110.8754 0001378  71.4734 201.9177 15.80855281  3402
STARLINK-36369          
1 67723U 26026C   26056.83336806  .00137236  00000+0  70693-3 0  9996
2 67723  97.2837 110.8783 0001593  85.4050 193.8268 15.80786779  3403
STARLINK-36752          
1 67724U 26026D   26056.83336806  .00228485  00000+0  11658-2 0  9999
2 67724  97.2816 110.8823 0001451  82.6094 204.2652 15.80756046  3404
STARLINK-36754          
1 67725U 26026E   26056.83336806 -.00022827  00000+0 -11852-3 0  9991
2 67725  97.2820 110.8839 0001460 108.1936 184.6930 15.80857370  3408
STARLINK-36755          
1 67726U 26026F   26056.83336806  .00101522  00000+0  52482-3 0  9994
2 67726  97.2812 110.8861 0001284  85.1329 215.4188 15.80807379  3401
STARLINK-36741          
1 67727U 26026G   26056.83336806  .00035208  00000+0  18370-3 0  9990
2 67727  97.2805 110.8875 0001554  93.5274 211.9674 15.80827700  3402
STARLINK-36757          
1 67728U 26026H   26056.83336806  .00083368  00000+0  43188-3 0  9996
2 67728  97.2804 110.8896 0001071  90.8477 221.5524 15.80813406  3403
STARLINK-36751          
1 67729U 26026J   26056.83336806  .00125129  00000+0  64530-3 0  9993
2 67729  97.2799 110.8953 0001050  77.8470 248.6515 15.80794917  3401
STARLINK-36747          
1 67730U 26026K   26056.83336806 -.00085964  00000+0 -45134-3 0  9998
2 67730  97.2809 110.8928 0001437  96.1669 221.7743 15.80870452  3404
STARLINK-36315          
1 67731U 26026L   26056.83336806 -.00022405  00000+0 -11635-3 0  9999
2 67731  97.2808 110.8985 0001750 100.9542 231.0138 15.80847788  3407
STARLINK-36260          
1 67732U 26026M   26056.83336806 -.00007374  00000+0 -37728-4 0  9990
2 67732  97.2810 110.9009 0001485  80.5275 258.1764 15.80851934  3403
STARLINK-36746          
1 67733U 26026N   26056.83336806 -.01975539  00000+0 -13144-1 0  9992
2 67733  97.2742 110.9006 0001393  82.0923 259.0273 15.78590707  3400
